#dP2024  4 11 18  0  0.00000000      96 __u+U IGS20 EXT  IAC
## 2309 410400.00000000   900.00000000 60411 0.7500000000000
+  118   C06C07C08C09C10C11C12C13C14C16C19C20C21C22C23C24C25
+        C26C27C28C29C30C32C33C34C35C36C37C38C39C40C41C42C43
+        C44C45C46E02E03E04E05E07E08E09E10E11E12E13E14E15E19
+        E21E24E25E26E27E30E31E33E34E36G01G02G03G04G05G06G07
+        G08G09G10G11G12G13G14G15G16G17G18G19G20G21G22G23G24
+        G25G26G27G28G29G30G31G32J02J03R01R02R03R04R05R07R08
+        R09R11R12R13R14R15R16R17R18R19R20R21R22R24R25R26  0
++        11  9  9 11  8  9  9 10  9 10  8  9  9  8  9  7  8
++         9  9  7  9  9  9  8  7  8  9 10  8 10  8  9  8  8
++         8  9  9  6  8  7  7  6  7  7  8  7  7  7  7  8  8
++         7  7  7  7  7  7  8  6  8  7  6  8  7  6  8  7 10
++         7  5  8  6  8  7  6  7  8  7  7  6  7 10  8  8  7
++         6  8  6  7  7  6  7  7  9 10  9  6  6  6  7  8  7
++         8  7  8  9  7  8  9  8  8  7  8  8  9  8  7  7  0
%c M  cc GPS ccc cccc cccc cccc cccc ccccc ccccc ccccc ccccc
%c cc cc ccc ccc cccc cccc cccc cccc ccccc ccccc ccccc ccccc
%f  0.0000000  0.000000000  0.00000000000  0.000000000000000
%f  0.0000000  0.000000000  0.00000000000  0.000000000000000
%i    0    0    0    0      0      0      0      0         0
%i    0    0    0    0      0      0      0      0         0
/* IAC                                ULTRA-RAPID PREDICTION
/* S/V CLOCKS ARE ALIGNED TO GNSS TIME                      
/* G:C1WC2W R:C1PC2P E:C1XC5X C:C2IC6I J:C1CC2S             
/* PCV:IGS20_2290 OL/AL:FES2004  NONE     YN ORB:CoN CLK:CoN
*  2024 04 12  9  0  0.00000000
PC06  -6060.083492  23841.094249 -34188.903225    340.354520
PC07 -16573.744521  37459.065566   9581.206252   -827.961972
PC08  -1050.542687  35848.649736  22328.327865    -18.014070
PC09    -41.314314  24876.675644 -33498.894761   -751.236170
PC10  -9022.027332  37560.662881  16553.500463      4.526029
PC11  22604.976169 -10234.169203 -12711.073463    508.060693
PC12  27361.023155   1144.335393   5394.116463   -230.152831
PC13   4142.043921  39067.130712  15822.379337    430.629322
PC14  16548.578045 -19694.887436 -10882.664481    625.159910
PC16 -12562.710901  21224.757471 -33940.909925   -453.507213
PC19 -12320.853979  24937.088418   2047.989288   -914.790626
PC20 -18057.591368  12783.021892  16998.316071   -352.127223
PC21  13358.774567   8302.250865 -23030.748916   -962.760929
PC22    862.734178  23471.491417 -15041.513557    -41.587046
PC23  -9761.316962 -24424.030318   9323.861697   -775.644059
PC24  18776.982275    286.593415  20633.296009    941.398544
PC25   5677.293802 -17372.391721  21071.704516    372.845841
PC26  20695.141697  16779.604904   8337.535667   -276.121769
PC27 -23675.891388  -6761.742013 -13167.641314    297.889787
PC28  -8671.827482 -14661.129415 -22102.701799    227.721288
PC29 -14389.964601  15228.587666  18426.319520    267.124442
PC30 -27158.006312   5888.489561   2681.753647    -54.558296
PC32 -13383.068838  -8351.931725  23039.517312   -600.451633
PC33  12192.696208 -25029.993187  -2088.765555   -970.534021
PC34  26691.265071  -6909.217244  -4249.439045    410.513595
PC35   8925.231965  14484.604846  22096.425383    388.883237
PC36  -6244.007190  17092.300177 -21140.108640     48.870356
PC37 -20234.596770 -17409.677911  -8090.523822   -957.105542
PC38  -6708.649981  31720.435316  27074.010989    148.518077
PC39 -17644.432046  19980.091939 -32652.904202     -7.955106
PC40 -23966.850585  33479.388869   8354.248832    -65.113634
PC41   -365.458412 -23932.863251  14423.310428   -923.519388
PC42  18110.945185 -11261.819780 -17970.853602   -443.412712
PC43  15281.101365 -15068.250499 -17839.014387     67.684975
PC44  23809.728243   6006.124928  13209.708853    441.383197
PC45   9736.425949  24434.402619  -9357.855415    -79.882369
PC46 -18313.816820    481.014277 -21047.472942   -139.345638
PE02  -3461.894819 -29212.710978  -3228.893119    118.819067
PE03    603.575569 -19169.058384  22553.905421   -106.667404
PE04  18597.868356   6399.117419 -22109.054905   -371.706008
PE05  19051.811502 -20444.100797   9777.820908   4737.819575
PE07 -26497.462879   9469.468856   9176.073795   -114.124480
PE08 -17906.270605  -6953.075903  22523.092113   -253.755379
PE09  26470.848799  -9469.404780  -9282.950503   -404.310348
PE10  27327.285183   9320.546139  -6520.647286   -616.531408
PE11  24967.147052   1395.975774 -15833.725706   3050.777400
PE12  25312.086040  15072.701888   2728.795790   -990.606705
PE13 -25242.743594  -1932.437014  15352.662156    -20.979926
PE14 -18182.717814  -8149.260581 -19339.876924      4.348537
PE15 -25120.882797 -15322.290541  -3288.050696    -96.633599
PE19  -2961.235694  19778.773552 -21806.958271   -258.164592
PE21  -8765.655286  24401.019776 -14287.808554   -588.839360
PE24  16522.530132  -4662.039198  24091.048791   -703.119211
PE25   8992.046454 -24126.853720  14597.830803      3.243901
PE26 -10090.864837  12870.028020  24675.008351    423.532917
PE27 -16418.297266   5114.587720 -24097.876499   -322.386699
PE30 -14246.690810 -17147.594733 -19482.472480   -190.620233
PE31  14304.057166  16968.291904  19587.972617    -20.631626
PE33   9732.247861  19484.103205  20044.626970     10.306621
PE34 -10302.574911 -19519.452164 -19729.262994   -105.227199
PE36  10601.756491 -12370.372000 -24711.137875   -212.262768
PG01 -24280.001869 -11012.159770   1798.116768    179.463716
PG02 -20915.260331 -14086.022450  -8288.971716   -454.726168
PG03 -12026.578802 -17270.006186  16132.311655    306.201269
PG04 -14898.397361  -7559.277870  20696.492441    336.937612
PG05   6040.620873  25504.013861  -4153.186236   -168.845337
PG06 -12153.049852   9774.996844  21580.308733    325.622952
PG07 -24527.886543  -4410.315119  -9325.775758   -105.515810
PG08  -6572.569155 -14156.006205 -21559.880461    116.985823
PG09 -22490.982515   4660.046759  13305.192217    157.554533
PG10  10965.033207 -15539.787755 -18192.309059     -7.990539
PG11    983.717809  16732.342662  20638.283122   -634.176246
PG12  10565.066810  19019.378811  14987.660303   -495.847594
PG13  -3705.717314  17145.657057 -20076.021662    642.062533
PG14 -13562.942850  11549.773798 -19611.257704    374.298606
PG15   8354.855567  13921.900152 -21495.826197    147.574415
PG16    -86.045538 -26311.431595   -527.079939   -318.704550
PG17 -23106.851174  13219.018914   -732.211753    711.239267
PG18  23956.159445   3642.308144 -11080.851050   -593.046637
PG19 -19116.274332  16341.205499   7737.448669    467.083775
PG20    482.826404  25347.550904   8240.835984    380.474316
PG21 -17498.985655 -15903.619171 -12587.492299    127.539409
PG22 -10394.430142  19510.940241 -14509.868789      1.716135
PG23  14634.939566  -2387.428272 -22007.910856    199.053535
PG24  19044.487250  15593.542324 -10910.428065   -458.400056
PG25  14979.463518   9037.131464  19717.287726    493.575887
PG26   5505.020249 -22752.417628  12044.084790    167.732652
PG27   5809.106732 -19015.314377 -17682.222291    -18.138204
PG28  14503.788250  -9083.293077  20295.878190   -200.179426
PG29  21928.081199   -845.208620  14985.562580   -602.135002
PG30 -19239.298528   5092.607111 -17573.921850   -406.403734
PG31   4602.978161 -14672.872710  21416.641524   -228.019533
PG32  21088.901628 -15918.678834   1401.528972   -617.995695
PJ02 -21818.301619  30598.030420 -14585.927928     -3.968695
PJ03 -29033.049067  22467.689472  25851.535559     -0.068986
PR01   2853.052579  14197.118233 -20987.418122     82.267417
PR02  13258.727149  -1467.572684 -21677.590857    -22.701286
PR03  16663.206187 -16511.935293  -9898.359150     98.105189
PR04  11072.087804 -21903.578964   6968.553631    231.684795
PR05   -524.029308 -15676.300538  20126.722116    129.842323
PR07 -16659.204823  17043.461748   9201.853118     80.061794
PR08 -10814.726462  22002.312376  -7031.553127    -75.037152
PR09 -15476.360982 -11281.337645 -16876.931582    180.586281
PR11    585.920782  18981.224384 -17012.355538     28.227011
PR12  11773.331864  22619.939148    894.321924     38.910254
PR13  15233.783200  13683.599385  15196.391674    -46.227878
PR14   9556.048515  -5776.412801  22943.963048     26.376210
PR15  -1391.016537 -19923.398988  15889.144391     80.578646
PR16 -11757.320877 -22651.199078   -579.840531     24.746483
PR17  21547.172051  -4357.981858 -12963.856838     77.299431
PR18   7049.741933  -9612.267424 -22531.963742    136.764112
PR19  -9006.517197 -10640.254722 -21366.110520   -272.773192
PR20 -24443.617831  -5219.793080  -5209.133265   -111.089245
PR21 -21537.996001   4144.178159  13001.654820    -92.105718
PR22  -6206.439442  10068.690580  22625.333641    115.616426
PR24  24764.359900   4040.149800   4631.926440    -51.514193
PR25 -21560.989809   3769.025498  13088.563179    -28.672729
PR26 -11261.602641  22067.597002  -5989.311734    -25.344796
EOF
